IRIDIUM 150             
1 43257U 18030J   24345.74425114  .00000055  00000+0  12408-4 0  9997
2 43257  86.3982 161.8153 0001679  92.7504 267.3884 14.34217954350831
IRIDIUM 143             
1 43258U 18030K   24345.93452800  .00000020  00000+0  22696-6 0  9995
2 43258  86.3993 161.8068 0001362  92.2385 267.8967 14.34217638350791
IRIDIUM 161             
1 43478U 18047C   24346.18622006  .00000879  00000+0  25543-3 0  9995
2 43478  86.4476 319.5680 0002121  88.0242 272.1201 14.43272722345376
IRIDIUM 152             
1 43479U 18047D   24346.18630952  .00000640  00000+0  22144-3 0  9995
2 43479  86.3951 319.4274 0002315  84.2508 275.8951 14.34224192343233
IRIDIUM 147             
1 43480U 18047E   24346.19266633  .00000128  00000+0  38517-4 0  9992
2 43480  86.3952 319.4202 0002583  87.4900 272.6591 14.34217549343227
IRIDIUM 110             
1 43481U 18047F   24346.19900841  .00000148  00000+0  45633-4 0  9998
2 43481  86.3956 319.4950 0002593  81.0177 279.1312 14.34217773343210
IRIDIUM 162             
1 43482U 18047G   24345.69460913  .00000961  00000+0  27963-3 0  9992
2 43482  86.4459 319.6734 0003112  73.0758 287.0783 14.43276146345295
IRIDIUM 160             
1 43569U 18061A   24345.93553429  .00000660  00000+0  22841-3 0  9992
2 43569  86.3955 287.9632 0002391  88.6628 271.4842 14.34221568334076
